YAM-7                   
1 60504U 24149AN  26068.71799904  .00009009  00000+0  30984-3 0  9997
2 60504  97.3828 149.4631 0001973 296.5121  63.5918 15.30304554 86835
STARLINK-35821          
1 66372U 25254AA  26068.72385447  .00033273  00000+0  11301-2 0  9999
2 66372  53.1584 229.9257 0001062  51.4783 308.6312 15.30210868 19013
